YAOGAN-36 04C           
1 54750U 22171E   26068.78871400  .00016196  00000+0  54592-3 0  9991
2 54750  34.9797  96.6578 0006685 275.3761  84.6192 15.29852307180246
STARLINK-32410          
1 61887U 24204P   26068.39800075 -.00002646  00000+0 -77260-4 0  9991
2 61887  53.1600 128.3831 0001131  68.5581 291.5540 15.30199223 75050
